[{"CCSDS_OMM_VERS":"2.0","COMMENT":"GENERATED VIA SPACE-TRACK.ORG API","CREATION_DATE":"2023-05-31T14:26:13","ORIGINATOR":"18 SPCS","OBJECT_NAME":"KSF3-C","OBJECT_ID":"2023-001K","CENTER_NAME":"EARTH","REF_FRAME":"TEME","TIME_SYSTEM":"UTC","MEAN_ELEMENT_THEORY":"SGP4","EPOCH":"2023-05-31T09:58:11.228736","MEAN_MOTION":"15.16496935","ECCENTRICITY":"0.00118660","INCLINATION":"97.4784","RA_OF_ASC_NODE":"211.1938","ARG_OF_PERICENTER":"78.4680","MEAN_ANOMALY":"281.7884","EPHEMERIS_TYPE":"0","CLASSIFICATION_TYPE":"U","NORAD_CAT_ID":"55018","ELEMENT_SET_NO":"999","REV_AT_EPOCH":"2252","BSTAR":"0.00054274000000","MEAN_MOTION_DOT":"0.00010531","MEAN_MOTION_DDOT":"0.0000000000000","SEMIMAJOR_AXIS":"6894.575","PERIOD":"94.956","APOAPSIS":"524.621","PERIAPSIS":"508.259","OBJECT_TYPE":"PAYLOAD","RCS_SIZE":"MEDIUM","COUNTRY_CODE":"LUXE","LAUNCH_DATE":"2023-01-03","SITE":"AFETR","DECAY_DATE":null,"FILE":"3921581","GP_ID":"232866600","TLE_LINE0":"0 KSF3-C","TLE_LINE1":"1 55018U 23001K   23151.41540774  .00010531  00000-0  54274-3 0  9994","TLE_LINE2":"2 55018  97.4784 211.1938 0011866  78.4680 281.7884 15.16496935 22528"},{"CCSDS_OMM_VERS":"2.0","COMMENT":"GENERATED VIA SPACE-TRACK.ORG API","CREATION_DATE":"2023-05-31T18:59:16","ORIGINATOR":"18 SPCS","OBJECT_NAME":"KSF3-C","OBJECT_ID":"2023-001K","CENTER_NAME":"EARTH","REF_FRAME":"TEME","TIME_SYSTEM":"UTC","MEAN_ELEMENT_THEORY":"SGP4","EPOCH":"2023-05-31T14:43:14.076768","MEAN_MOTION":"15.16502593","ECCENTRICITY":"0.00118320","INCLINATION":"97.4784","RA_OF_ASC_NODE":"211.3890","ARG_OF_PERICENTER":"77.8812","MEAN_ANOMALY":"282.3746","EPHEMERIS_TYPE":"0","CLASSIFICATION_TYPE":"U","NORAD_CAT_ID":"55018","ELEMENT_SET_NO":"999","REV_AT_EPOCH":"2255","BSTAR":"0.00058424000000","MEAN_MOTION_DOT":"0.00011344","MEAN_MOTION_DDOT":"0.0000000000000","SEMIMAJOR_AXIS":"6894.558","PERIOD":"94.955","APOAPSIS":"524.580","PERIAPSIS":"508.265","OBJECT_TYPE":"PAYLOAD","RCS_SIZE":"MEDIUM","COUNTRY_CODE":"LUXE","LAUNCH_DATE":"2023-01-03","SITE":"AFETR","DECAY_DATE":null,"FILE":"3921767","GP_ID":"232896328","TLE_LINE0":"0 KSF3-C","TLE_LINE1":"1 55018U 23001K   23151.61335737  .00011344  00000-0  58424-3 0  9991","TLE_LINE2":"2 55018  97.4784 211.3890 0011832  77.8812 282.3746 15.16502593 22555"},{"CCSDS_OMM_VERS":"2.0","COMMENT":"GENERATED VIA SPACE-TRACK.ORG API","CREATION_DATE":"2023-05-31T22:36:12","ORIGINATOR":"18 SPCS","OBJECT_NAME":"KSF3-C","OBJECT_ID":"2023-001K","CENTER_NAME":"EARTH","REF_FRAME":"TEME","TIME_SYSTEM":"UTC","MEAN_ELEMENT_THEORY":"SGP4","EPOCH":"2023-05-31T17:53:15.952992","MEAN_MOTION":"15.16505126","ECCENTRICITY":"0.00118270","INCLINATION":"97.4783","RA_OF_ASC_NODE":"211.5191","ARG_OF_PERICENTER":"77.4408","MEAN_ANOMALY":"282.8147","EPHEMERIS_TYPE":"0","CLASSIFICATION_TYPE":"U","NORAD_CAT_ID":"55018","ELEMENT_SET_NO":"999","REV_AT_EPOCH":"2257","BSTAR":"0.00056452000000","MEAN_MOTION_DOT":"0.00010959","MEAN_MOTION_DDOT":"0.0000000000000","SEMIMAJOR_AXIS":"6894.550","PERIOD":"94.955","APOAPSIS":"524.569","PERIAPSIS":"508.261","OBJECT_TYPE":"PAYLOAD","RCS_SIZE":"MEDIUM","COUNTRY_CODE":"LUXE","LAUNCH_DATE":"2023-01-03","SITE":"AFETR","DECAY_DATE":null,"FILE":"3921854","GP_ID":"232900986","TLE_LINE0":"0 KSF3-C","TLE_LINE1":"1 55018U 23001K   23151.74532353  .00010959  00000-0  56452-3 0  9998","TLE_LINE2":"2 55018  97.4783 211.5191 0011827  77.4408 282.8147 15.16505126 22578"},{"CCSDS_OMM_VERS":"2.0","COMMENT":"GENERATED VIA SPACE-TRACK.ORG API","CREATION_DATE":"2023-06-01T03:27:57","ORIGINATOR":"18 SPCS","OBJECT_NAME":"KSF3-C","OBJECT_ID":"2023-001K","CENTER_NAME":"EARTH","REF_FRAME":"TEME","TIME_SYSTEM":"UTC","MEAN_ELEMENT_THEORY":"SGP4","EPOCH":"2023-05-31T21:03:17.801568","MEAN_MOTION":"15.16507826","ECCENTRICITY":"0.00118100","INCLINATION":"97.4783","RA_OF_ASC_NODE":"211.6492","ARG_OF_PERICENTER":"77.0591","MEAN_ANOMALY":"283.1960","EPHEMERIS_TYPE":"0","CLASSIFICATION_TYPE":"U","NORAD_CAT_ID":"55018","ELEMENT_SET_NO":"999","REV_AT_EPOCH":"2259","BSTAR":"0.00055813000000","MEAN_MOTION_DOT":"0.00010835","MEAN_MOTION_DDOT":"0.0000000000000","SEMIMAJOR_AXIS":"6894.542","PERIOD":"94.955","APOAPSIS":"524.549","PERIAPSIS":"508.264","OBJECT_TYPE":"PAYLOAD","RCS_SIZE":"MEDIUM","COUNTRY_CODE":"LUXE","LAUNCH_DATE":"2023-01-03","SITE":"AFETR","DECAY_DATE":null,"FILE":"3922037","GP_ID":"232930587","TLE_LINE0":"0 KSF3-C","TLE_LINE1":"1 55018U 23001K   23151.87728937  .00010835  00000-0  55813-3 0  9990","TLE_LINE2":"2 55018  97.4783 211.6492 0011810  77.0591 283.1960 15.16507826 22592"},{"CCSDS_OMM_VERS":"2.0","COMMENT":"GENERATED VIA SPACE-TRACK.ORG API","CREATION_DATE":"2023-06-01T06:46:12","ORIGINATOR":"18 SPCS","OBJECT_NAME":"KSF3-C","OBJECT_ID":"2023-001K","CENTER_NAME":"EARTH","REF_FRAME":"TEME","TIME_SYSTEM":"UTC","MEAN_ELEMENT_THEORY":"SGP4","EPOCH":"2023-06-01T03:23:21.439104","MEAN_MOTION":"15.16513698","ECCENTRICITY":"0.00117790","INCLINATION":"97.4783","RA_OF_ASC_NODE":"211.9095","ARG_OF_PERICENTER":"76.1811","MEAN_ANOMALY":"284.0732","EPHEMERIS_TYPE":"0","CLASSIFICATION_TYPE":"U","NORAD_CAT_ID":"55018","ELEMENT_SET_NO":"999","REV_AT_EPOCH":"2263","BSTAR":"0.00053711000000","MEAN_MOTION_DOT":"0.00010425","MEAN_MOTION_DDOT":"0.0000000000000","SEMIMAJOR_AXIS":"6894.524","PERIOD":"94.955","APOAPSIS":"524.510","PERIAPSIS":"508.268","OBJECT_TYPE":"PAYLOAD","RCS_SIZE":"MEDIUM","COUNTRY_CODE":"LUXE","LAUNCH_DATE":"2023-01-03","SITE":"AFETR","DECAY_DATE":null,"FILE":"3922145","GP_ID":"232933870","TLE_LINE0":"0 KSF3-C","TLE_LINE1":"1 55018U 23001K   23152.14122036  .00010425  00000-0  53711-3 0  9999","TLE_LINE2":"2 55018  97.4783 211.9095 0011779  76.1811 284.0732 15.16513698 22639"},{"CCSDS_OMM_VERS":"2.0","COMMENT":"GENERATED VIA SPACE-TRACK.ORG API","CREATION_DATE":"2023-06-01T19:51:48","ORIGINATOR":"18 SPCS","OBJECT_NAME":"KSF3-C","OBJECT_ID":"2023-001K","CENTER_NAME":"EARTH","REF_FRAME":"TEME","TIME_SYSTEM":"UTC","MEAN_ELEMENT_THEORY":"SGP4","EPOCH":"2023-06-01T09:43:24.966048","MEAN_MOTION":"15.16521053","ECCENTRICITY":"0.00117380","INCLINATION":"97.4782","RA_OF_ASC_NODE":"212.1698","ARG_OF_PERICENTER":"75.3067","MEAN_ANOMALY":"284.9466","EPHEMERIS_TYPE":"0","CLASSIFICATION_TYPE":"U","NORAD_CAT_ID":"55018","ELEMENT_SET_NO":"999","REV_AT_EPOCH":"2267","BSTAR":"0.00061073000000","MEAN_MOTION_DOT":"0.00011868","MEAN_MOTION_DDOT":"0.0000000000000","SEMIMAJOR_AXIS":"6894.502","PERIOD":"94.954","APOAPSIS":"524.459","PERIAPSIS":"508.274","OBJECT_TYPE":"PAYLOAD","RCS_SIZE":"MEDIUM","COUNTRY_CODE":"LUXE","LAUNCH_DATE":"2023-01-03","SITE":"AFETR","DECAY_DATE":null,"FILE":"3922365","GP_ID":"232964955","TLE_LINE0":"0 KSF3-C","TLE_LINE1":"1 55018U 23001K   23152.40515007  .00011868  00000-0  61073-3 0  9994","TLE_LINE2":"2 55018  97.4782 212.1698 0011738  75.3067 284.9466 15.16521053 22670"},{"CCSDS_OMM_VERS":"2.0","COMMENT":"GENERATED VIA SPACE-TRACK.ORG API","CREATION_DATE":"2023-06-01T23:36:14","ORIGINATOR":"18 SPCS","OBJECT_NAME":"KSF3-C","OBJECT_ID":"2023-001K","CENTER_NAME":"EARTH","REF_FRAME":"TEME","TIME_SYSTEM":"UTC","MEAN_ELEMENT_THEORY":"SGP4","EPOCH":"2023-06-01T09:43:24.966048","MEAN_MOTION":"15.16521053","ECCENTRICITY":"0.00117380","INCLINATION":"97.4782","RA_OF_ASC_NODE":"212.1698","ARG_OF_PERICENTER":"75.3067","MEAN_ANOMALY":"284.9466","EPHEMERIS_TYPE":"0","CLASSIFICATION_TYPE":"U","NORAD_CAT_ID":"55018","ELEMENT_SET_NO":"999","REV_AT_EPOCH":"2267","BSTAR":"0.00061073000000","MEAN_MOTION_DOT":"0.00011868","MEAN_MOTION_DDOT":"0.0000000000000","SEMIMAJOR_AXIS":"6894.502","PERIOD":"94.954","APOAPSIS":"524.459","PERIAPSIS":"508.274","OBJECT_TYPE":"PAYLOAD","RCS_SIZE":"MEDIUM","COUNTRY_CODE":"LUXE","LAUNCH_DATE":"2023-01-03","SITE":"AFETR","DECAY_DATE":null,"FILE":"3922452","GP_ID":"232969022","TLE_LINE0":"0 KSF3-C","TLE_LINE1":"1 55018U 23001K   23152.40515007  .00011868  00000-0  61073-3 0  9994","TLE_LINE2":"2 55018  97.4782 212.1698 0011738  75.3067 284.9466 15.16521053 22670"},{"CCSDS_OMM_VERS":"2.0","COMMENT":"GENERATED VIA SPACE-TRACK.ORG API","CREATION_DATE":"2023-06-02T02:18:38","ORIGINATOR":"18 SPCS","OBJECT_NAME":"KSF3-C","OBJECT_ID":"2023-001K","CENTER_NAME":"EARTH","REF_FRAME":"TEME","TIME_SYSTEM":"UTC","MEAN_ELEMENT_THEORY":"SGP4","EPOCH":"2023-06-01T20:48:30.929760","MEAN_MOTION":"15.16532023","ECCENTRICITY":"0.00116780","INCLINATION":"97.4781","RA_OF_ASC_NODE":"212.6252","ARG_OF_PERICENTER":"73.8808","MEAN_ANOMALY":"286.3710","EPHEMERIS_TYPE":"0","CLASSIFICATION_TYPE":"U","NORAD_CAT_ID":"55018","ELEMENT_SET_NO":"999","REV_AT_EPOCH":"2274","BSTAR":"0.00061523000000","MEAN_MOTION_DOT":"0.00011960","MEAN_MOTION_DDOT":"0.0000000000000","SEMIMAJOR_AXIS":"6894.468","PERIOD":"94.953","APOAPSIS":"524.385","PERIAPSIS":"508.282","OBJECT_TYPE":"PAYLOAD","RCS_SIZE":"MEDIUM","COUNTRY_CODE":"LUXE","LAUNCH_DATE":"2023-01-03","SITE":"AFETR","DECAY_DATE":null,"FILE":"3922718","GP_ID":"233000727","TLE_LINE0":"0 KSF3-C","TLE_LINE1":"1 55018U 23001K   23152.86702465  .00011960  00000-0  61523-3 0  9993","TLE_LINE2":"2 55018  97.4781 212.6252 0011678  73.8808 286.3710 15.16532023 22744"}]